C/2018 KJ3 (Lemmon),e,136.7087,91.5996,217.6595,816.6774,0.0000422,0.99555605,0.0000,09/09.6729/2019,2000,g 12.2,2.0
# From MPC114602
P/2018 L1 (PANSTARRS),e,10.5930,268.6305,17.9772,3.650555,0.1413077,0.48289940,108.7196,12/21.0/2020,2000,g 15.0,4.0
# From MPC118841
C/2018 L2 (ATLAS),e,67.3918,243.0238,56.2707,258.7129,0.0002369,0.99338002,0.0000,12/02.6782/2018,2000,g 10.0,4.0
# From MPC114603
P/2018 L4 (PANSTARRS),e,26.6245,145.1580,140.5545,4.940231,0.0897601,0.66019412,78.3708,12/21.0/2020,2000,g 17.5,4.0
# From MPC119996
P/2018 L5 (Leonard),e,2.2083,219.1303,93.7928,3.627690,0.1426457,0.36478358,137.0737,12/21.0/2020,2000,g 14.5,4.0
# From MPC117070
C/2018 M1 (Catalina),e,37.2887,339.4186,14.1607,21.34818,0.0099922,0.93898738,8.9404,12/21.0/2020,2000,g 15.5,4.0
# From MPC112393
C/2018 N1 (NEOWISE),e,159.4446,292.4446,354.6186,347.7617,0.0001520,0.99623403,0.0000,08/01.9310/2018,2000,g 15.5,4.0
# From MPC119996
C/2018 N2 (ASASSN),h,11/10.9698/2019,77.5282,25.2470,24.4027,1.000110,3.124768,2000,6.0,4.0
# From MPC114603
C/2018 O1 (ATLAS),e,154.0397,87.6422,162.5741,27.89119,0.0066912,0.94405995,5.6369,12/21.0/2020,2000,g 17.0,4.0
# From MPC114603
P/2018 P3 (PANSTARRS),e,8.9088,59.1865,305.8718,3.006342,0.1890804,0.41642250,151.8827,12/21.0/2020,2000,g 14.5,4.0
# From MPC114603
P/2018 P4 (PANSTARRS),e,23.1069,353.0776,8.2092,6.671027,0.0572025,0.45036504,44.2814,12/21.0/2020,2000,g 12.0,4.0
# From MPC118094
C/2018 P5 (PANSTARRS),e,7.2533,216.2425,131.7167,12.79471,0.0215357,0.64225525,14.2789,12/21.0/2020,2000,g 11.0,4.0
# From MPC118841
C/2018 R3 (Lemmon),e,69.7272,324.6371,112.8388,1691,0.0000142,0.99923757,0.0000,06/07.2196/2019,2000,g  9.5,4.0
# From MPC112393
C/2018 R4 (Fuls),e,11.6836,298.4362,345.2720,328.6221,0.0001654,0.99478613,0.0000,03/03.6541/2018,2000,g 14.0,4.0
# From MPC114603
C/2018 R5 (Lemmon),e,103.7482,171.1306,178.0456,22.78421,0.0090626,0.84099214,6.4435,12/21.0/2020,2000,g 11.5,4.0
# From MPC119996
C/2018 U1 (Lemmon),h,11/02.8164/2021,108.2991,75.4793,180.4307,1.001110,4.993344,2000,5.0,4.0
# From MPC114604
C/2018 V1 (Machholz-Fujikawa-Iwamoto),h,12/03.3337/2018,144.0535,128.8781,88.8379,1.000359,0.386042,2000,12.0,4.0
# From MPC115884
C/2018 V2 (ATLAS),e,159.1659,357.0672,318.9571,25.20787,0.0077875,0.90168838,5.8838,12/21.0/2020,2000,g 15.0,4.0
# From MPC114604
P/2018 VN2 (Leonard),e,18.2483,226.5177,138.7364,4.064755,0.1202687,0.47841961,111.7756,12/21.0/2020,2000,g 15.0,4.0
# From MPC117070
A/2018 V3,e,164.9781,308.6563,3.5138,121.4534,0.0007364,0.98896613,0.0000,09/08.6776/2019,2000,g 15.7,2.0
# From MPC114604
C/2018 V4 (Africano),e,69.0030,78.3684,359.9493,206.7646,0.0003315,0.98453552,0.0000,03/01.4408/2019,2000,g 12.5,4.0
# From MPC114604
P/2018 V5 (Trujillo-Sheppard),e,10.5847,171.2907,260.7052,8.954399,0.0367832,0.47458200,29.7997,12/21.0/2020,2000,g 12.5,4.0
# From MPC115884
C/2018 W1 (Catalina),e,83.2624,233.5926,251.2506,21.72310,0.0097347,0.93736566,5.7362,12/21.0/2020,2000,g 15.7,2.0
# From MPC119996
C/2018 W2 (Africano),h,09/05.6657/2019,116.6170,181.8523,157.9747,1.000461,1.454955,2000,9.5,4.0
# From MPC119996
C/2018 X2 (Fitzsimmons),e,23.0694,340.8270,162.0601,148.3139,0.0005457,0.98566204,0.0000,07/08.4542/2019,2000,g 12.0,4.0
# From MPC114604
C/2018 X3 (PANSTARRS),e,43.3704,78.9101,359.7630,12.38046,0.0226255,0.78217455,16.3226,12/21.0/2020,2000,g 14.5,4.0
# From MPC118842
C/2018 Y1 (Iwamoto),e,160.4001,147.5100,358.0279,141.5540,0.0005852,0.99091979,0.0000,02/07.0181/2019,2000,g 11.5,4.0
# From MPC114605
P/2018 Y2 (Africano),e,11.6827,297.2665,162.3703,7.463249,0.0483406,0.47864244,34.7662,12/21.0/2020,2000,g 11.5,4.0
# From MPC114605
P/2019 A1 (PANSTARRS),e,13.7442,312.3029,150.7979,5.123534,0.0849864,0.56835299,68.1827,12/21.0/2020,2000,g 16.0,4.0
# From MPC114605
P/2019 A2 (ATLAS),e,14.8605,139.4681,324.0808,5.723580,0.0719784,0.38135441,54.8020,12/21.0/2020,2000,g 10.5,4.0
# From MPC114605
P/2019 A3 (PANSTARRS),e,15.3666,31.3040,325.4883,3.146987,0.1765475,0.26549054,153.9202,12/21.0/2020,2000,g 16.0,4.0
# From MPC114605
P/2019 A4 (PANSTARRS),e,13.3209,119.2991,341.7794,2.614327,0.2331655,0.08870495,174.2979,12/21.0/2020,2000,g 15.0,4.0
# From MPC118842
C/2019 A5 (PANSTARRS),e,67.5569,146.6256,355.9818,21.59283,0.0098229,0.70716793,5.5134,12/21.0/2020,2000,g  9.5,4.0
# From MPC114605
P/2019 A6 (Lemmon-PANSTARRS),e,33.2302,280.2693,156.2187,5.363467,0.0793479,0.63895011,67.0386,12/21.0/2020,2000,g 16.0,4.0
# From MPC114605
P/2019 A7 (PANSTARRS),e,17.7745,280.5229,119.2718,3.185745,0.1733355,0.16109459,187.0027,12/21.0/2020,2000,g 13.5,4.0
# From MPC115884
P/2019 A8 (PANSTARRS),e,3.0871,127.5539,22.3607,3.357009,0.1602416,0.45381517,132.1717,12/21.0/2020,2000,g 16.0,4.0
# From MPC118842
C/2019 A9 (PANSTARRS),e,84.2022,278.3854,237.9620,39.85295,0.0039175,0.96410266,2.0114,12/21.0/2020,2000,g 15.0,4.0
# From MPC114606
C/2019 B1 (Africano),e,123.3637,290.4353,174.8478,146.6635,0.0005549,0.98911330,0.0000,03/19.7817/2019,2000,g 16.0,4.0
# From MPC115885
P/2019 B2 (Groeller),e,16.8353,176.3101,359.1994,3.862717,0.1298269,0.37326517,72.8209,12/21.0/2020,2000,g 14.5,4.0
# From MPC115885
C/2019 B3 (PANSTARRS),h,01/19.9464/2021,66.5386,358.4289,263.9009,1.002519,6.823634,2000,5.5,4.0
# From MPEC 2020-AA5
C/2019 C1,e,36.0238,212.3893,319.1914,761.6702,0.0000469,0.99135960,0.0000,05/05.6473/2020,2000,g 10.0,4.0
# From MPC118842
C/2019 D1 (Flewelling),e,34.0830,231.7174,70.5190,141.2148,0.0005873,0.98882083,0.0000,05/11.8772/2019,2000,g 13.0,4.0
# From MPC119997
C/2019 E3 (ATLAS),h,11/12.4660/2023,84.2911,347.2399,280.6086,1.004067,10.315039,2000,2.5,4.0
# From MPC119997
C/2019 F1 (ATLAS-Africano),h,06/22.7785/2021,54.1755,38.7261,251.1174,1.003639,3.595688,2000,5.5,4.0
# From MPC119997
C/2019 F2 (ATLAS),e,19.1967,175.7198,11.2451,16.71905,0.0144174,0.86622455,6.7591,12/21.0/2020,2000,g 12.0,4.0
# From MPEC 2020-AA5
A/2019 G2,e,159.2082,208.1510,82.6377,675.5729,0.0000561,0.99660889,0.0000,12/10.0050/2019,2000,g 16.5,2.0
# From MPC118094
A/2019 G4,h,09/16.0058/2018,138.3864,130.4642,287.8839,1.001448,5.858466,2000,13.0,2.0
# From MPC114607
P/2019 GG21 (PANSTARRS),e,6.0838,340.5801,208.4893,7.472603,0.0482499,0.47300135,28.4775,12/21.0/2020,2000,g 12.0,4.0
# From MPC115885
C/2019 H1 (NEOWISE),e,104.5724,269.1941,19.3182,234.1966,0.0002750,0.99211867,0.0000,04/27.7924/2019,2000,g 15.5,4.0
# From MPC118842
C/2019 J1 (Lemmon),e,24.5505,98.0903,167.7848,69.74980,0.0016920,0.96445301,1.0521,12/21.0/2020,2000,g 12.0,4.0
# From MPC115885
C/2019 J2 (Palomar),e,105.1491,25.4780,98.7141,674.5801,0.0000563,0.99743953,0.0000,07/19.7046/2019,2000,g 13.0,4.0
# From MPC117071
C/2019 J3 (ATLAS),h,08/01.9437/2019,131.4123,270.5241,16.5789,1.000207,2.374184,2000,13.5,4.0
# From MPC117071
C/2019 JU6 (ATLAS),e,148.3023,21.7417,94.8998,336.2408,0.0001599,0.99391571,0.0000,05/31.8882/2019,2000,g 14.5,4.0
# From MPC119997
C/2019 K1 (ATLAS),h,02/12.9829/2020,87.1436,73.3773,265.7124,1.000014,2.012673,2000,10.0,4.0
# From MPC119997
C/2019 K4 (Ye),e,105.3024,180.1634,139.7739,1573,0.0000158,0.99856311,0.0000,06/16.3222/2019,2000,g 12.5,4.0
# From MPC119997
C/2019 K5 (Young),e,15.3150,177.1644,174.9645,157.2802,0.0004997,0.98705863,0.0000,06/22.8533/2019,2000,g 13.0,4.0
# From MPC117071
A/2019 K6,e,132.3772,42.9426,187.6280,1656,0.0000146,0.99762801,0.0000,05/20.2360/2020,2000,g 13.6,2.0
# From MPC118095
C/2019 K7 (Smith),e,103.5400,307.9298,27.3081,92171,0.0000000,0.99995145,0.0000,06/16.9763/2020,2000,g  6.2,4.0
# From MPC119997
C/2019 K8 (ATLAS),e,93.2215,291.0449,85.3719,2228,0.0000094,0.99856595,0.0000,07/21.3706/2019,2000,g 11.5,4.0
# From MPC118095
C/2019 L1 (PANSTARRS),e,9.9928,254.4116,49.9524,9.835295,0.0319538,0.70604326,15.9016,12/21.0/2020,2000,g 13.5,4.0
# From MPC115886
C/2019 L2 (NEOWISE),e,152.1817,12.5822,18.7446,24.85250,0.0079552,0.93480705,5.0053,12/21.0/2020,2000,g 16.0,4.0
# From MPC119997
C/2019 L3 (ATLAS),h,01/09.7024/2022,48.3661,290.7855,171.6357,1.000949,3.553965,2000,4.5,4.0
# From MPC118095
C/2019 LB7 (Kleyna),e,164.2905,3.8796,336.4878,34.89295,0.0047819,0.92881199,3.0363,12/21.0/2020,2000,g 17.0,4.0
# From MPC118843
P/2019 M2 (ATLAS),e,12.2821,307.5964,332.5640,3.026584,0.1871867,0.64835688,102.4566,12/21.0/2020,2000,g 21.2,4.0
# From MPC118095
C/2019 M3 (ATLAS),h,01/02.7459/2019,99.4626,154.9001,87.9322,1.001350,2.418880,2000,12.2,4.0
# From MPC119997
C/2019 N1 (ATLAS),e,82.4275,13.5728,193.4469,34597,0.0000002,0.99995073,0.0000,12/01.7903/2020,2000,g  7.5,4.0
# From MPEC 2020-AA5
A/2019 O2,e,93.2863,48.3184,129.6812,57.37159,0.0022681,0.83125813,358.0993,12/21.0/2020,2000,g  9.5,2.0
# From MPC118843
A/2019 O3,h,03/08.0375/2021,89.8126,300.3792,60.0562,1.002129,8.818465,2000,10.0,2.0
# From MPC117072
A/2019 O4,e,115.0860,354.9183,61.8284,32.85355,0.0052340,0.88905874,1.6485,12/21.0/2020,2000,g 15.5,2.0
# From MPEC 2020-AA5
A/2019 Q1,h,07/20.0731/2020,155.7220,42.3505,55.9786,1.000828,4.996890,2000,12.5,2.0
# From MPC117072
A/2019 Q2,e,159.0199,188.0419,176.2961,57.31496,0.0022714,0.97807275,0.0000,07/22.3033/2019,2000,g 18.0,2.0
# From MPC117072
C/2019 Q3 (PANSTARRS),h,08/21.3289/2018,65.5274,151.3239,152.6812,1.004161,7.253282,2000,8.5,4.0
# From MPC117072
P/2019 S2 (PANSTARRS),e,10.4729,93.1296,216.8529,4.736085,0.0956257,0.20678726,63.9237,12/21.0/2020,2000,g 13.5,4.0
# From MPC118096
P/2019 S3 (PANSTARRS),e,8.6935,150.1608,212.9802,3.414709,0.1561973,0.47091279,75.4125,12/21.0/2020,2000,g 18.3,4.0
# From MPEC 2020-AA5
A/2019 S4,e,92.0240,63.1640,71.3641,234.2292,0.0002749,0.98530584,0.0000,04/07.9715/2020,2000,g 14.5,2.0
# From MPC118843
A/2019 T1,e,120.8697,6.9537,91.0277,38.25701,0.0041652,0.88808347,359.8990,12/21.0/2020,2000,g 13.0,2.0
# From MPEC 2020-AA5
A/2019 T2,e,111.4830,155.6406,239.3850,2523,0.0000078,0.99895131,0.0000,04/22.2566/2021,2000,g 12.5,2.0
# From MPC119998
C/2019 T3 (ATLAS),e,121.8625,139.5203,112.2735,4385,0.0000034,0.99864382,0.0000,03/02.6439/2021,2000,g  6.8,4.0
# From MPC119998
